LUR-1                   
1 60506U 24149AQ  26068.79566301  .00009121  00000+0  32985-3 0  9998
2 60506  97.3790 148.4255 0002777 309.1571  50.9421 15.28658648 86785
STARLINK-36092          
1 66869U 25281X   26068.17067163  .00027117  00000+0  99106-3 0  9991
2 66869  43.0018 346.6220 0001183 269.2480  90.8236 15.27588836 16097
